{"fetched_at":"2026-03-30T09:12:31Z","count":15922,"tles":[{"name":"STARLINK-3996","line1":"1 52617U 22052V   26087.68970680  .00000675  00000+0  60499-4 0  9998","line2":"2 52617  53.2169 183.8256 0001017  79.3023 280.8084 15.08844175213857","category":"Starlink"}]}