{
  "norad_id": 52617,
  "name": "STARLINK-3996",
  "history": [
    {
      "epoch": "2026-03-28T16:33:10.667520",
      "apogee_km": 540.4347974345865,
      "perigee_km": 539.0264579429413,
      "latitude_deg": -46.15769545718333,
      "longitude_deg": -132.08814719994552,
      "semi_major_axis_km": 6917.867627688764,
      "eccentricity": 0.00010179,
      "inclination_deg": 53.2169,
      "raan_deg": 183.8256,
      "arg_perigee_deg": 79.3023,
      "mean_anomaly_deg": 280.8084,
      "mean_motion_rev_day": 15.08844175
    }
  ]
}